{"fetched_at":"2026-07-15T17:47:12.281Z","source":"https://celestrak.org/NORAD/elements/gp.php?NAME=HAWK&FORMAT=JSON","constellation":"hawkeye-360","records":[{"OBJECT_NAME":"HAWK-12A","OBJECT_ID":"2025-138C","EPOCH":"2026-07-14T23:39:34.676928","CLASSIFICATION_TYPE":"U","MEAN_MOTION":15.18401313,"ECCENTRICITY":0.0015025,"INCLINATION":97.4411,"RA_OF_ASC_NODE":198.3065,"ARG_OF_PERICENTER":47.5141,"MEAN_ANOMALY":312.736,"EPHEMERIS_TYPE":0,"NORAD_CAT_ID":64623,"ELEMENT_SET_NO":999,"REV_AT_EPOCH":5808,"BSTAR":0.000094228,"MEAN_MOTION_DOT":0.00001875,"MEAN_MOTION_DDOT":0},{"OBJECT_NAME":"HAWK-13A","OBJECT_ID":"2026-004AF","EPOCH":"2026-07-14T23:44:14.504928","CLASSIFICATION_TYPE":"U","MEAN_MOTION":15.19357307,"ECCENTRICITY":0.0004118,"INCLINATION":97.4444,"RA_OF_ASC_NODE":194.4654,"ARG_OF_PERICENTER":220.6485,"MEAN_ANOMALY":139.4442,"EPHEMERIS_TYPE":0,"NORAD_CAT_ID":67392,"ELEMENT_SET_NO":999,"REV_AT_EPOCH":2798,"BSTAR":0.00011061,"MEAN_MOTION_DOT":0.0000227,"MEAN_MOTION_DDOT":0},{"OBJECT_NAME":"HAWK-13C","OBJECT_ID":"2026-004AG","EPOCH":"2026-07-14T22:09:11.198592","CLASSIFICATION_TYPE":"U","MEAN_MOTION":15.19356897,"ECCENTRICITY":0.0003952,"INCLINATION":97.4588,"RA_OF_ASC_NODE":194.8241,"ARG_OF_PERICENTER":224.4149,"MEAN_ANOMALY":135.6769,"EPHEMERIS_TYPE":0,"NORAD_CAT_ID":67393,"ELEMENT_SET_NO":999,"REV_AT_EPOCH":2797,"BSTAR":0.0001099,"MEAN_MOTION_DOT":0.00002255,"MEAN_MOTION_DDOT":0},{"OBJECT_NAME":"HAWK-13B","OBJECT_ID":"2026-004AK","EPOCH":"2026-07-14T23:43:53.868288","CLASSIFICATION_TYPE":"U","MEAN_MOTION":15.19356297,"ECCENTRICITY":0.0005235,"INCLINATION":97.4528,"RA_OF_ASC_NODE":194.7125,"ARG_OF_PERICENTER":225.5483,"MEAN_ANOMALY":134.5324,"EPHEMERIS_TYPE":0,"NORAD_CAT_ID":67396,"ELEMENT_SET_NO":999,"REV_AT_EPOCH":2798,"BSTAR":0.00010877,"MEAN_MOTION_DOT":0.00002231,"MEAN_MOTION_DDOT":0},{"OBJECT_NAME":"HAWK-14B","OBJECT_ID":"2026-067W","EPOCH":"2026-07-14T19:53:46.909824","CLASSIFICATION_TYPE":"U","MEAN_MOTION":15.18428977,"ECCENTRICITY":0.00015589,"INCLINATION":97.4561,"RA_OF_ASC_NODE":153.886,"ARG_OF_PERICENTER":1.3554,"MEAN_ANOMALY":358.7684,"EPHEMERIS_TYPE":0,"NORAD_CAT_ID":68436,"ELEMENT_SET_NO":999,"REV_AT_EPOCH":1613,"BSTAR":0.00011939284,"MEAN_MOTION_DOT":0.0000239,"MEAN_MOTION_DDOT":0},{"OBJECT_NAME":"HAWK-14C","OBJECT_ID":"2026-067AB","EPOCH":"2026-07-14T19:53:55.616352","CLASSIFICATION_TYPE":"U","MEAN_MOTION":15.18426747,"ECCENTRICITY":0.00026539,"INCLINATION":97.4499,"RA_OF_ASC_NODE":153.7666,"ARG_OF_PERICENTER":25.2611,"MEAN_ANOMALY":334.8752,"EPHEMERIS_TYPE":0,"NORAD_CAT_ID":68441,"ELEMENT_SET_NO":999,"REV_AT_EPOCH":1613,"BSTAR":0.00012038534,"MEAN_MOTION_DOT":0.0000241,"MEAN_MOTION_DDOT":0},{"OBJECT_NAME":"HAWK-14A","OBJECT_ID":"2026-067AJ","EPOCH":"2026-07-14T19:54:06.175296","CLASSIFICATION_TYPE":"U","MEAN_MOTION":15.18430358,"ECCENTRICITY":0.00033255,"INCLINATION":97.4622,"RA_OF_ASC_NODE":154.0121,"ARG_OF_PERICENTER":16.5241,"MEAN_ANOMALY":343.6101,"EPHEMERIS_TYPE":0,"NORAD_CAT_ID":68448,"ELEMENT_SET_NO":999,"REV_AT_EPOCH":1613,"BSTAR":0.00012084185,"MEAN_MOTION_DOT":0.0000242,"MEAN_MOTION_DDOT":0}]}
